[{"OBJECT_NAME":"TIANMU-1 07","OBJECT_ID":"2023-101A","EPOCH":"2026-03-06T13:47:20.454720","MEAN_MOTION":15.29118809,"ECCENTRICITY":0.00046097,"INCLINATION":97.2728,"RA_OF_ASC_NODE":118.5929,"ARG_OF_PERICENTER":142.4105,"MEAN_ANOMALY":217.7458,"EPHEMERIS_TYPE":0,"CLASSIFICATION_TYPE":"U","NORAD_CAT_ID":57399,"ELEMENT_SET_NO":999,"REV_AT_EPOCH":14596,"BSTAR":0.00029794732,"MEAN_MOTION_DOT":8.352e-5,"MEAN_MOTION_DDOT":0},{"OBJECT_NAME":"STARLINK-36102","OBJECT_ID":"2025-281B","EPOCH":"2026-03-09T16:00:03.000096","MEAN_MOTION":15.27548752,"ECCENTRICITY":0.00017022,"INCLINATION":43.0042,"RA_OF_ASC_NODE":343.8058,"ARG_OF_PERICENTER":272.8951,"MEAN_ANOMALY":305.2793,"EPHEMERIS_TYPE":0,"CLASSIFICATION_TYPE":"U","NORAD_CAT_ID":66849,"ELEMENT_SET_NO":999,"REV_AT_EPOCH":577,"BSTAR":0.0015469241,"MEAN_MOTION_DOT":0.00042511,"MEAN_MOTION_DDOT":0}]
